[{"OBJECT_NAME":"STARLINK-35858","OBJECT_ID":"2025-280N","EPOCH":"2026-03-09T22:27:13.590144","MEAN_MOTION":14.98346887,"ECCENTRICITY":0.0002778,"INCLINATION":70.0021,"RA_OF_ASC_NODE":333.7979,"ARG_OF_PERICENTER":267.7652,"MEAN_ANOMALY":92.3189,"EPHEMERIS_TYPE":0,"CLASSIFICATION_TYPE":"U","NORAD_CAT_ID":66833,"ELEMENT_SET_NO":999,"REV_AT_EPOCH":1611,"BSTAR":0.00077500561,"MEAN_MOTION_DOT":9.17e-5,"MEAN_MOTION_DDOT":0},{"OBJECT_NAME":"CZ-6A DEB","OBJECT_ID":"2022-151AAA","EPOCH":"2026-03-09T04:57:45.021312","MEAN_MOTION":15.12096834,"ECCENTRICITY":0.00549442,"INCLINATION":98.6194,"RA_OF_ASC_NODE":161.6622,"ARG_OF_PERICENTER":147.3471,"MEAN_ANOMALY":213.1173,"EPHEMERIS_TYPE":0,"CLASSIFICATION_TYPE":"U","NORAD_CAT_ID":55878,"ELEMENT_SET_NO":999,"REV_AT_EPOCH":16515,"BSTAR":0.0054624845,"MEAN_MOTION_DOT":0.00098665,"MEAN_MOTION_DDOT":0}]
